[{"id":"0882be65-e5f3-4035-9a3b-b9a7811cb5f3","lat":38.988651,"lon":-94.552277,"street":"Melody","zip":"618 30","nema":true,"wireless":false,"fixture_mfg":"Rhyloo"},
{"id":"cbbc82c9-75b2-4cfd-80dc-638669fe69ce","lat":39.025824,"lon":-94.692675,"street":"Hudson","zip":"4690-805","nema":true,"wireless":true,"fixture_mfg":"Dynazzy"},
{"id":"cdda8d7c-069d-4694-b5fd-b0a81755aba9","lat":38.981032,"lon":-94.723838,"street":"Moose","zip":"203-0044","nema":false,"wireless":false,"fixture_mfg":"Shufflebeat"},
{"id":"90f7e570-f42f-4d94-a0a7-65110b12e08f","lat":39.131635,"lon":-94.518796,"street":"Dottie","nema":false,"wireless":true,"fixture_mfg":"Youspan"},
{"id":"fa24454c-845b-4b2f-8f08-d57256c18fde","lat":38.97298,"lon":-94.476686,"street":"Northwestern","nema":false,"wireless":false,"fixture_mfg":"Plajo"},
{"id":"bad2667d-34af-4aec-bb6a-4f2ca8c79e82","lat":39.216911,"lon":-94.724015,"street":"Cottonwood","nema":true,"wireless":false,"fixture_mfg":"Devcast"},
{"id":"e02c8bba-376c-447a-a98e-d6d49fad84e2","lat":39.094779,"lon":-94.476324,"street":"Beilfuss","zip":"67928 CEDEX 9","nema":false,"wireless":true,"fixture_mfg":"Jaloo"},
{"id":"c1b943a7-7e56-4780-befd-9217fc64cbab","lat":39.065357,"lon":-94.64628,"street":"Melby","zip":"30414","nema":false,"wireless":false,"fixture_mfg":"Gabvine"},
{"id":"059e0b86-bc9f-40e3-9dc1-7a4c5c0760a9","lat":39.095537,"lon":-94.693761,"street":"Donald","zip":"729-3222","nema":false,"wireless":false,"fixture_mfg":"Voonder"},
{"id":"947ec9df-990c-43f8-9490-f6ec1e58d0b0","lat":39.129982,"lon":-94.707562,"street":"Gateway","zip":"29424","nema":true,"wireless":false,"fixture_mfg":"Tavu"},
{"id":"db38c48e-b276-400f-9765-c94215b5baad","lat":39.075578,"lon":-94.647026,"street":"Boyd","nema":true,"wireless":false,"fixture_mfg":"Edgetag"},
{"id":"8cf4415d-afcc-473b-b8a0-7bf194c8a79f","lat":39.134861,"lon":-94.555943,"street":"Almo","nema":true,"wireless":true,"fixture_mfg":"Janyx"},
{"id":"d9946d5a-994f-4acc-b166-44b504a1c503","lat":39.193628,"lon":-94.763595,"street":"Corben","zip":"35790-000","nema":true,"wireless":true,"fixture_mfg":"Twinte"},
{"id":"480041e2-9cd9-4418-9a37-f345403e4215","lat":39.207248,"lon":-94.741311,"street":"Acker","zip":"25676","nema":true,"wireless":false,"fixture_mfg":"Oyoba"},
{"id":"a4e2059c-25c3-4f13-ae8d-857a1af9eca3","lat":39.108805,"lon":-94.596814,"street":"Kinsman","zip":"4620-280","nema":true,"wireless":false,"fixture_mfg":"Thoughtworks"},
{"id":"7390a2a7-ce34-42a8-8a5d-06116ff18aae","lat":39.183296,"lon":-94.618509,"street":"Granby","zip":"3405-605","nema":true,"wireless":true,"fixture_mfg":"Topicstorm"},
{"id":"62e64bc7-c794-4242-8345-6048307cfa58","lat":39.158955,"lon":-94.636811,"street":"Northfield","nema":false,"wireless":false,"fixture_mfg":"Jabberbean"},
{"id":"037ed052-1505-4a20-b4c4-a9e7e02595b0","lat":39.144096,"lon":-94.524008,"street":"Loomis","zip":"MD-5727","nema":true,"wireless":true,"fixture_mfg":"Midel"},
{"id":"0a3c7231-dd2a-40d7-8286-ce250ed9396c","lat":39.058721,"lon":-94.596975,"street":"Goodland","nema":false,"wireless":false,"fixture_mfg":"Wordtune"},
{"id":"548d3060-44bb-48d1-9a74-5a29c27d67dd","lat":39.126224,"lon":-94.5946,"street":"Mariners Cove","nema":false,"wireless":true,"fixture_mfg":"Babbleopia"},
{"id":"145e064f-8fc3-4862-a29b-5a2ee15cea9c","lat":39.170123,"lon":-94.721573,"street":"Duke","nema":false,"wireless":true,"fixture_mfg":"Shuffletag"},
{"id":"8b411e26-408d-4592-8747-de200ae83844","lat":38.960311,"lon":-94.567933,"street":"Mifflin","zip":"39030","nema":true,"wireless":false,"fixture_mfg":"Centizu"},
{"id":"9b270392-0c2c-44d0-856b-685348c1070a","lat":38.960374,"lon":-94.466981,"street":"Eliot","zip":"44-274","nema":false,"wireless":true,"fixture_mfg":"Feedfire"},
{"id":"c43aec44-e7f4-4777-898c-986ee7426cda","lat":38.966197,"lon":-94.583668,"street":"Mallard","zip":"140514","nema":true,"wireless":true,"fixture_mfg":"Flashdog"},
{"id":"c8d01c1e-f7cf-4e4f-a5b3-5ab6f9fe7124","lat":39.154188,"lon":-94.748599,"street":"Vidon","nema":false,"wireless":true,"fixture_mfg":"Fadeo"},
{"id":"9e26d457-d475-4e60-a209-9e24f55ad99a","lat":39.055098,"lon":-94.613178,"street":"Summer Ridge","zip":"10303","nema":true,"wireless":false,"fixture_mfg":"Youtags"},
{"id":"960fc4f1-3de6-4f8d-9b88-adc324025092","lat":38.9662,"lon":-94.470717,"street":"Raven","nema":false,"wireless":false,"fixture_mfg":"Oyoba"},
{"id":"6c09531e-2fc8-44e5-9647-98101a644b95","lat":38.960319,"lon":-94.78551,"street":"Debs","zip":"26100-000","nema":true,"wireless":false,"fixture_mfg":"Wikivu"},
{"id":"5da2ebaf-4d0f-4516-bef9-63ae75a6694b","lat":39.058558,"lon":-94.69922,"street":"Pankratz","nema":false,"wireless":true,"fixture_mfg":"Realbuzz"},
{"id":"25f2faf9-7aa8-4e6a-b5b1-a8409271bfff","lat":39.151596,"lon":-94.670767,"street":"Holy Cross","nema":false,"wireless":false,"fixture_mfg":"Voonyx"},
{"id":"deae8b4c-a491-477e-9197-2552eae8fddc","lat":38.969287,"lon":-94.768141,"street":"Sundown","nema":false,"wireless":false,"fixture_mfg":"Tagtune"},
{"id":"3616b231-2c96-4a6e-bf42-63260da2a548","lat":39.060955,"lon":-94.612844,"street":"Briar Crest","zip":"173007","nema":true,"wireless":false,"fixture_mfg":"Yodoo"},
{"id":"86c411a2-39ae-44e6-844f-c3bfd0d810ee","lat":39.063983,"lon":-94.760698,"street":"Ryan","nema":true,"wireless":true,"fixture_mfg":"Skinix"},
{"id":"5ef8a7dc-ee24-434c-bc9b-5fc11766cabe","lat":39.249448,"lon":-94.521036,"street":"Cherokee","nema":false,"wireless":true,"fixture_mfg":"Twitterworks"},
{"id":"0edb85a5-daf8-4104-b6eb-e751b0f6bddd","lat":39.018824,"lon":-94.678051,"street":"Talisman","nema":false,"wireless":true,"fixture_mfg":"Gabspot"},
{"id":"28250c16-58f1-44f7-80e8-805c8d3c48ae","lat":38.970685,"lon":-94.590229,"street":"Rusk","nema":true,"wireless":false,"fixture_mfg":"Dabjam"},
{"id":"22595945-6327-4685-9766-4640fed87950","lat":39.183898,"lon":-94.757998,"street":"Forest","nema":false,"wireless":true,"fixture_mfg":"Zoomzone"},
{"id":"3b9a32f1-2b4e-417f-8f59-551a5cf85b14","lat":39.226454,"lon":-94.553115,"street":"Vahlen","nema":true,"wireless":true,"fixture_mfg":"Eire"},
{"id":"29252fd6-5225-4ee2-9954-617d59983e21","lat":38.954312,"lon":-94.742097,"street":"Forster","zip":"1116","nema":true,"wireless":false,"fixture_mfg":"Gabcube"},
{"id":"d6fde17b-0272-425b-a3bd-cda237c7ca75","lat":39.136767,"lon":-94.768408,"street":"Melody","nema":false,"wireless":true,"fixture_mfg":"Jaxworks"},
{"id":"bdf394ac-7b8f-4c11-9449-86da679f63e8","lat":39.128049,"lon":-94.720408,"street":"Eagle Crest","zip":"238346","nema":true,"wireless":false,"fixture_mfg":"Ntags"},
{"id":"0cf7fd47-fe75-40ef-8128-ceece5901b11","lat":38.988202,"lon":-94.515251,"street":"Gerald","zip":"271058","nema":false,"wireless":true,"fixture_mfg":"Ainyx"},
{"id":"998ad83c-ab26-4d74-8e1d-ae8097a49015","lat":39.182531,"lon":-94.619224,"street":"Fairfield","zip":"15517","nema":true,"wireless":true,"fixture_mfg":"Trupe"},
{"id":"fab15f25-41c0-42c7-946c-8b5459464538","lat":39.16063,"lon":-94.680477,"street":"Dahle","zip":"840-2223","nema":false,"wireless":true,"fixture_mfg":"Cogilith"},
{"id":"d3f979fa-7aec-41a4-ad2e-e5bf6a6c82a8","lat":39.001277,"lon":-94.63207,"street":"Magdeline","zip":"58322-000","nema":false,"wireless":true,"fixture_mfg":"Feedfire"},
{"id":"14ed068e-126d-4fc7-9ae6-f8dba9f8243a","lat":39.144225,"lon":-94.653209,"street":"Fairfield","nema":false,"wireless":true,"fixture_mfg":"Babbleset"},
{"id":"17714285-baec-4b0f-ac49-15b39d7edefe","lat":39.103827,"lon":-94.648396,"street":"Graceland","zip":"368978","nema":false,"wireless":true,"fixture_mfg":"Skinte"},
{"id":"5220bb2a-c77c-4618-abbc-4248af6ee48f","lat":39.1245,"lon":-94.576346,"street":"Bultman","zip":"28805","nema":false,"wireless":true,"fixture_mfg":"Twinte"},
{"id":"5703602b-f35e-4650-af64-b854713d3c15","lat":39.1334,"lon":-94.46048,"street":"Burrows","nema":false,"wireless":true,"fixture_mfg":"Trudeo"},
{"id":"baa9cdb8-42ac-49e5-8231-18a68f80bfaa","lat":39.095391,"lon":-94.739913,"street":"Dexter","zip":"96960","nema":true,"wireless":true,"fixture_mfg":"Mydeo"},
{"id":"39bcce7b-8a57-4939-bbe2-7eec6954db0a","lat":39.014272,"lon":-94.462104,"street":"Mcguire","nema":true,"wireless":false,"fixture_mfg":"Blogpad"},
{"id":"a127e52c-1c38-4886-b9e7-9ef77c4f725f","lat":39.156541,"lon":-94.490401,"street":"Delaware","nema":false,"wireless":false,"fixture_mfg":"Tekfly"},
{"id":"136bc464-eacb-40d9-9f66-2a422d9eb0fa","lat":39.116162,"lon":-94.500941,"street":"Muir","zip":"307754","nema":false,"wireless":true,"fixture_mfg":"Thoughtstorm"},
{"id":"80222fdf-9c84-498b-a444-5256dbe6e4c7","lat":39.137622,"lon":-94.784404,"street":"Bowman","zip":"624742","nema":true,"wireless":false,"fixture_mfg":"Meedoo"},
{"id":"cd091362-1117-47ff-9e39-b773d64eb286","lat":39.125444,"lon":-94.62213,"street":"Tennyson","nema":true,"wireless":true,"fixture_mfg":"Yacero"},
{"id":"940984b1-16d6-4040-9fa9-f363dc94ba26","lat":39.02344,"lon":-94.657527,"street":"Hanson","zip":"38530-000","nema":false,"wireless":true,"fixture_mfg":"Mudo"},
{"id":"8b4112ef-535c-4c57-8e84-d8a14a508189","lat":39.096626,"lon":-94.599482,"street":"Fulton","zip":"43-196","nema":true,"wireless":true,"fixture_mfg":"Aibox"},
{"id":"c7cd30f7-c77d-462b-9b4b-e4bce2942416","lat":38.97101,"lon":-94.516784,"street":"Arizona","nema":true,"wireless":false,"fixture_mfg":"Skiptube"},
{"id":"18d998d9-078b-48bb-b8d9-3d32273bdecf","lat":39.190568,"lon":-94.773766,"street":"Schiller","zip":"4615-178","nema":false,"wireless":true,"fixture_mfg":"Realpoint"},
{"id":"60e4af9c-39e8-4806-97e6-824a32142ab9","lat":38.962448,"lon":-94.661553,"street":"Sage","nema":true,"wireless":false,"fixture_mfg":"Leexo"},
{"id":"3397d8b4-5ddd-4c04-9b23-6052181119a2","lat":39.005517,"lon":-94.523735,"street":"Eagan","nema":true,"wireless":true,"fixture_mfg":"Realcube"},
{"id":"b1fa5e0d-c2b8-4b62-8ac6-39de12075ab4","lat":39.111706,"lon":-94.658433,"street":"Utah","zip":"38190-000","nema":true,"wireless":false,"fixture_mfg":"Realbuzz"},
{"id":"51ac5e1c-c433-46f9-9220-341fe611e528","lat":39.082066,"lon":-94.535886,"street":"Spaight","nema":true,"wireless":true,"fixture_mfg":"Dabvine"},
{"id":"1b0bdfde-92a5-44c7-b778-15b62d9ce678","lat":39.205799,"lon":-94.518835,"street":"Raven","nema":false,"wireless":false,"fixture_mfg":"Centimia"},
{"id":"0755d3b5-fb55-46f5-9610-a79c480d6346","lat":38.984816,"lon":-94.617166,"street":"Sachtjen","zip":"309288","nema":false,"wireless":true,"fixture_mfg":"Devpulse"},
{"id":"3cbcd243-7c75-4f2a-b89a-f66b09ff87fa","lat":38.977257,"lon":-94.769406,"street":"American Ash","zip":"2106","nema":true,"wireless":false,"fixture_mfg":"Photofeed"},
{"id":"d6d68db1-3200-4936-be9d-bfecd6067b69","lat":39.227196,"lon":-94.584458,"street":"Debs","zip":"4117","nema":true,"wireless":false,"fixture_mfg":"Realbuzz"},
{"id":"40e83a9d-7506-4c6c-bbf1-fb12f55cdabc","lat":39.226099,"lon":-94.602341,"street":"Sachs","zip":"30160","nema":false,"wireless":true,"fixture_mfg":"Dynava"},
{"id":"bf130156-90ca-42a3-b99a-7e97ff0236a1","lat":39.051845,"lon":-94.569346,"street":"Michigan","nema":true,"wireless":false,"fixture_mfg":"LiveZ"},
{"id":"9905dab8-6ad9-421d-9b75-e2eb45d299d8","lat":39.022927,"lon":-94.682115,"street":"Mariners Cove","zip":"06073 CEDEX 1","nema":true,"wireless":false,"fixture_mfg":"Layo"},
{"id":"8b5aece9-3c20-4c63-805a-cb04ceec8d3b","lat":39.040224,"lon":-94.694468,"street":"7th","nema":true,"wireless":true,"fixture_mfg":"Flashpoint"},
{"id":"f6121382-5190-490b-bd4a-e6234d648c2d","lat":39.208421,"lon":-94.573364,"street":"Merrick","zip":"10805","nema":true,"wireless":false,"fixture_mfg":"Yakidoo"},
{"id":"5be96b9c-aa25-49ed-87f6-f26e98655de8","lat":39.161807,"lon":-94.636838,"street":"Talmadge","nema":true,"wireless":true,"fixture_mfg":"Myworks"},
{"id":"93fc2cf9-d673-4b2f-ab69-b8798c087bbd","lat":38.975052,"lon":-94.603069,"street":"Hanover","nema":false,"wireless":false,"fixture_mfg":"Avamba"},
{"id":"8423c38e-28f9-4944-9d95-588996f48df9","lat":39.139369,"lon":-94.522409,"street":"La Follette","zip":"756 44","nema":true,"wireless":true,"fixture_mfg":"Omba"},
{"id":"80048813-a1de-439a-a593-d231201fec97","lat":39.197994,"lon":-94.566838,"street":"Kensington","nema":false,"wireless":false,"fixture_mfg":"Kare"},
{"id":"e3432c89-89a2-441b-95e9-90eaa6987467","lat":39.071502,"lon":-94.553803,"street":"Banding","zip":"687 23","nema":true,"wireless":true,"fixture_mfg":"Youbridge"},
{"id":"523fc8ad-cc3a-452b-a1da-43092a353824","lat":39.067665,"lon":-94.751632,"street":"Center","nema":true,"wireless":false,"fixture_mfg":"Rhynyx"},
{"id":"39f0f669-09c1-45dc-8a6d-99999f9a8972","lat":39.219457,"lon":-94.597825,"street":"Goodland","nema":false,"wireless":false,"fixture_mfg":"Tagopia"},
{"id":"74912ebd-1add-4cd0-8df1-9f501d77b6ef","lat":39.111585,"lon":-94.76355,"street":"Melby","nema":true,"wireless":true,"fixture_mfg":"Dabvine"},
{"id":"4ca11272-6f77-456a-8f43-721e9d715074","lat":39.100221,"lon":-94.720738,"street":"Monument","nema":true,"wireless":false,"fixture_mfg":"Photospace"},
{"id":"6a6e8880-80d6-4e29-95a2-9d94b83cc1bf","lat":39.202764,"lon":-94.639392,"street":"Algoma","nema":false,"wireless":true,"fixture_mfg":"Babblestorm"},
{"id":"8fe1ae0e-68b8-43a8-8886-c531fe117574","lat":39.099533,"lon":-94.580407,"street":"Lerdahl","zip":"301070","nema":true,"wireless":false,"fixture_mfg":"Rhycero"},
{"id":"08be2239-6830-4a4d-a388-4a3a57ac2ef9","lat":39.010703,"lon":-94.78568,"street":"Valley Edge","zip":"77316 CEDEX 2","nema":true,"wireless":true,"fixture_mfg":"Youbridge"},
{"id":"ada6ffa4-75e5-4a08-bddf-7bb419820967","lat":39.096885,"lon":-94.600633,"street":"Fallview","zip":"T7Z","nema":false,"wireless":true,"fixture_mfg":"Realfire"},
{"id":"a4a2188a-e478-48a8-b9ea-4290f0b2b8c1","lat":39.111612,"lon":-94.710257,"street":"8th","nema":true,"wireless":true,"fixture_mfg":"Edgewire"},
{"id":"7b265964-0283-4294-9316-649e6ec784fe","lat":39.106228,"lon":-94.515831,"street":"Kedzie","nema":false,"wireless":true,"fixture_mfg":"Yoveo"},
{"id":"6330aef1-a8fd-4039-84ef-8f8f396a785a","lat":39.179206,"lon":-94.536275,"street":"Old Gate","nema":true,"wireless":false,"fixture_mfg":"Devshare"},
{"id":"2ec4804a-d2a5-4da6-9214-91afb5574243","lat":39.124372,"lon":-94.479926,"street":"Village","zip":"6229","nema":false,"wireless":false,"fixture_mfg":"Dynazzy"},
{"id":"e6e514c1-2a95-4117-abff-1d9cb10c659c","lat":39.214408,"lon":-94.631717,"street":"Lawn","nema":false,"wireless":false,"fixture_mfg":"Myworks"},
{"id":"4800a7b6-d666-4b75-9abf-bfcc80eef1d5","lat":39.002825,"lon":-94.733775,"street":"Springview","nema":true,"wireless":true,"fixture_mfg":"Divavu"},
{"id":"acb77e5b-1253-49fb-a602-6b6104113506","lat":39.211702,"lon":-94.533061,"street":"Rowland","nema":true,"wireless":true,"fixture_mfg":"Thoughtstorm"},
{"id":"b4d1fad9-247b-4555-a7e4-449711aa80a4","lat":39.126303,"lon":-94.709843,"street":"Morning","zip":"10136","nema":true,"wireless":false,"fixture_mfg":"Vimbo"},
{"id":"7cef364e-d4ff-4ed8-a9aa-2ae0f2087a03","lat":39.053544,"lon":-94.498459,"street":"Mandrake","zip":"547079","nema":true,"wireless":false,"fixture_mfg":"Oyoba"},
{"id":"4ff4c5d5-dae8-4337-9dc0-3e9a5c1a0d02","lat":39.213557,"lon":-94.459,"street":"Novick","nema":false,"wireless":false,"fixture_mfg":"Tanoodle"},
{"id":"87e0dfa2-4dd1-46f5-bd86-c11f08d72644","lat":39.164244,"lon":-94.666489,"street":"Quincy","nema":false,"wireless":true,"fixture_mfg":"Twimm"},
{"id":"62705e73-d8ed-4eb0-b7cf-d99fe1a7508c","lat":39.104314,"lon":-94.549289,"street":"Meadow Valley","nema":true,"wireless":false,"fixture_mfg":"Quimba"},
{"id":"7bf70846-c6a5-45f5-9365-91c089264eed","lat":38.989816,"lon":-94.532186,"street":"Dunning","zip":"8029","nema":false,"wireless":false,"fixture_mfg":"Kwimbee"},
{"id":"bf452037-7223-4913-a3da-6fd918112a26","lat":39.034566,"lon":-94.475254,"street":"Hazelcrest","nema":true,"wireless":false,"fixture_mfg":"Oyoloo"},
{"id":"996cbe32-1026-4bae-b714-680c9dc8df14","lat":39.194851,"lon":-94.547379,"street":"Buell","zip":"34-382","nema":true,"wireless":true,"fixture_mfg":"Pixope"}]